{"type": "FeatureCollection", "features": [ {"type": "Feature", "properties": {"norad_id": 34001, "name": "COSMOS 2251 DEB", "group": "cosmos-2251-debris", "lat": -45.97581741877556, "lon": 129.92116311114802, "alt_km": 786.2897269956375, "timestamp": "2025-12-06T16:45:43.114905+00:00", "meta": {"OBJECT_NAME": "COSMOS 2251 DEB", "OBJECT_ID": "1993-036GL", "EPOCH": "2025-12-06T05:59:18.079584", "MEAN_MOTION": 14.37085439, "ECCENTRICITY": 0.00196549, "INCLINATION": 74.0384, "RA_OF_ASC_NODE": 293.5213, "ARG_OF_PERICENTER": 16.0609, "MEAN_ANOMALY": 50.9327, "EPHEMERIS_TYPE": 0, "CLASSIFICATION_TYPE": "U", "NORAD_CAT_ID": 34001, "ELEMENT_SET_NO": 999, "REV_AT_EPOCH": 88053, "BSTAR": 0.00041236068, "MEAN_MOTION_DOT": 1.201e-05, "MEAN_MOTION_DDOT": 0}, "tle": {"line1": "1 34001U 93036GL  25340.24951481  .00001201  00000+0  41236-3 0  9999", "line2": "2 34001  74.0384 293.5213 0019654  16.0609  50.9327 14.37085439880532"}}, "geometry": {"type": "Point", "coordinates": [129.92116311114802, -45.97581741877556]}}, {"type": "Feature", "properties": {"norad_id": 34003, "name": "COSMOS 2251 DEB", "group": "cosmos-2251-debris", "lat": -8.55696005365387, "lon": 117.77328167256711, "alt_km": 1104.5068847841012, "timestamp": "2025-12-06T16:45:43.114915+00:00", "meta": {"OBJECT_NAME": "COSMOS 2251 DEB", "OBJECT_ID": "1993-036GN", "EPOCH": "2025-12-06T07:12:02.823552", "MEAN_MOTION": 13.84094622, "ECCENTRICITY": 0.02738287, "INCLINATION": 74.0786, "RA_OF_ASC_NODE": 295.9819, "ARG_OF_PERICENTER": 49.5044, "MEAN_ANOMALY": 312.9595, "EPHEMERIS_TYPE": 0, "CLASSIFICATION_TYPE": "U", "NORAD_CAT_ID": 34003, "ELEMENT_SET_NO": 999, "REV_AT_EPOCH": 84336, "BSTAR": 0.0035256997, "MEAN_MOTION_DOT": 5.228e-05, "MEAN_MOTION_DDOT": 0}, "tle": {"line1": "1 34003U 93036GN  25340.30003268  .00005228  00000+0  35257-2 0  9997", "line2": "2 34003  74.0786 295.9819 0273828  49.5044 312.9595 13.84094622843360"}}, "geometry": {"type": "Point", "coordinates": [117.77328167256711, -8.55696005365387]}}, {"type": "Feature", "properties": {"norad_id": 34004, "name": "COSMOS 2251 DEB", "group": "cosmos-2251-debris", "lat": -34.634194376046, "lon": 155.84145434755777, "alt_km": 747.2037586580009, "timestamp": "2025-12-06T16:45:43.114925+00:00", "meta": {"OBJECT_NAME": "COSMOS 2251 DEB", "OBJECT_ID": "1993-036GP", "EPOCH": "2025-12-05T23:11:40.313184", "MEAN_MOTION": 14.48901647, "ECCENTRICITY": 0.00331316, "INCLINATION": 74.0356, "RA_OF_ASC_NODE": 325.8088, "ARG_OF_PERICENTER": 338.8477, "MEAN_ANOMALY": 21.131, "EPHEMERIS_TYPE": 0, "CLASSIFICATION_TYPE": "U", "NORAD_CAT_ID": 34004, "ELEMENT_SET_NO": 999, "REV_AT_EPOCH": 87932, "BSTAR": 0.0021730058, "MEAN_MOTION_DOT": 8.263e-05, "MEAN_MOTION_DDOT": 0}, "tle": {"line1": "1 34004U 93036GP  25339.96643881  .00008263  00000+0  21730-2 0  9992", "line2": "2 34004  74.0356 325.8088 0033131 338.8477  21.1310 14.48901647879324"}}, "geometry": {"type": "Point", "coordinates": [155.84145434755777, -34.634194376046]}}, {"type": "Feature", "properties": {"norad_id": 34005, "name": "COSMOS 2251 DEB", "group": "cosmos-2251-debris", "lat": -39.90615781212563, "lon": -149.03358977339795, "alt_km": 750.4327404833257, "timestamp": "2025-12-06T16:45:43.114936+00:00", "meta": {"OBJECT_NAME": "COSMOS 2251 DEB", "OBJECT_ID": "1993-036GQ", "EPOCH": "2025-12-06T00:46:54.499872", "MEAN_MOTION": 14.4029669, "ECCENTRICITY": 0.0020586, "INCLINATION": 74.045, "RA_OF_ASC_NODE": 226.0386, "ARG_OF_PERICENTER": 345.4368, "MEAN_ANOMALY": 121.8668, "EPHEMERIS_TYPE": 0, "CLASSIFICATION_TYPE": "U", "NORAD_CAT_ID": 34005, "ELEMENT_SET_NO": 999, "REV_AT_EPOCH": 88282, "BSTAR": 0.00020559141, "MEAN_MOTION_DOT": 6.27e-06, "MEAN_MOTION_DDOT": 0}, "tle": {"line1": "1 34005U 93036GQ  25340.03257523  .00000627  00000+0  20559-3 0  9992", "line2": "2 34005  74.0450 226.0386 0020586 345.4368 121.8668 14.40296690882826"}}, "geometry": {"type": "Point", "coordinates": [-149.03358977339795, -39.90615781212563]}}, {"type": "Feature", "properties": {"norad_id": 34006, "name": "COSMOS 2251 DEB", "group": "cosmos-2251-debris", "lat": 49.38570850512257, "lon": -44.03289788057339, "alt_km": 572.4001184733115, "timestamp": "2025-12-06T16:45:43.114946+00:00", "meta": {"OBJECT_NAME": "COSMOS 2251 DEB", "OBJECT_ID": "1993-036GR", "EPOCH": "2025-12-05T23:05:10.757184", "MEAN_MOTION": 14.94011993, "ECCENTRICITY": 0.00120838, "INCLINATION": 74.0531, "RA_OF_ASC_NODE": 156.9256, "ARG_OF_PERICENTER": 111.4056, "MEAN_ANOMALY": 16.7828, "EPHEMERIS_TYPE": 0, "CLASSIFICATION_TYPE": "U", "NORAD_CAT_ID": 34006, "ELEMENT_SET_NO": 999, "REV_AT_EPOCH": 88567, "BSTAR": 0.0045789293, "MEAN_MOTION_DOT": 0.0004922, "MEAN_MOTION_DDOT": 0}, "tle": {"line1": "1 34006U 93036GR  25339.96193006  .00049220  00000+0  45789-2 0  9991", "line2": "2 34006  74.0531 156.9256 0012083 111.4056  16.7828 14.94011993885678"}}, "geometry": {"type": "Point", "coordinates": [-44.03289788057339, 49.38570850512257]}}, {"type": "Feature", "properties": {"norad_id": 34007, "name": "COSMOS 2251 DEB", "group": "cosmos-2251-debris", "lat": -10.221506634703463, "lon": -4.43557906461134, "alt_km": 707.89189154615, "timestamp": "2025-12-06T16:45:43.114956+00:00", "meta": {"OBJECT_NAME": "COSMOS 2251 DEB", "OBJECT_ID": "1993-036GS", "EPOCH": "2025-12-06T00:25:06.744288", "MEAN_MOTION": 14.64714166, "ECCENTRICITY": 0.00446243, "INCLINATION": 74.0195, "RA_OF_ASC_NODE": 359.8364, "ARG_OF_PERICENTER": 136.9206, "MEAN_ANOMALY": 223.5469, "EPHEMERIS_TYPE": 0, "CLASSIFICATION_TYPE": "U", "NORAD_CAT_ID": 34007, "ELEMENT_SET_NO": 999, "REV_AT_EPOCH": 88981, "BSTAR": 0.0011296734, "MEAN_MOTION_DOT": 6.078e-05, "MEAN_MOTION_DDOT": 0}, "tle": {"line1": "1 34007U 93036GS  25340.01743917  .00006078  00000+0  11297-2 0  9993", "line2": "2 34007  74.0195 359.8364 0044624 136.9206 223.5469 14.64714166889812"}}, "geometry": {"type": "Point", "coordinates": [-4.43557906461134, -10.221506634703463]}}, {"type": "Feature", "properties": {"norad_id": 34008, "name": "COSMOS 2251 DEB", "group": "cosmos-2251-debris", "lat": 19.93431419080704, "lon": -12.480124603495854, "alt_km": 768.3204259865615, "timestamp": "2025-12-06T16:45:43.114966+00:00", "meta": {"OBJECT_NAME": "COSMOS 2251 DEB", "OBJECT_ID": "1993-036GT", "EPOCH": "2025-12-06T06:41:28.385664", "MEAN_MOTION": 14.331394, "ECCENTRICITY": 0.00240767, "INCLINATION": 74.0342, "RA_OF_ASC_NODE": 342.3268, "ARG_OF_PERICENTER": 338.7751, "MEAN_ANOMALY": 37.8601, "EPHEMERIS_TYPE": 0, "CLASSIFICATION_TYPE": "U", "NORAD_CAT_ID": 34008, "ELEMENT_SET_NO": 999, "REV_AT_EPOCH": 87872, "BSTAR": 0.00023313464, "MEAN_MOTION_DOT": 6.16e-06, "MEAN_MOTION_DDOT": 0}, "tle": {"line1": "1 34008U 93036GT  25340.27880076  .00000616  00000+0  23313-3 0  9995", "line2": "2 34008  74.0342 342.3268 0024076 338.7751  37.8601 14.33139400878723"}}, "geometry": {"type": "Point", "coordinates": [-12.480124603495854, 19.93431419080704]}}, {"type": "Feature", "properties": {"norad_id": 34009, "name": "COSMOS 2251 DEB", "group": "cosmos-2251-debris", "lat": 51.8811261340101, "lon": 9.373539608162673, "alt_km": 757.0558417707316, "timestamp": "2025-12-06T16:45:43.114976+00:00", "meta": {"OBJECT_NAME": "COSMOS 2251 DEB", "OBJECT_ID": "1993-036GU", "EPOCH": "2025-12-05T11:03:10.466784", "MEAN_MOTION": 14.33213326, "ECCENTRICITY": 0.0026302, "INCLINATION": 74.0371, "RA_OF_ASC_NODE": 350.2398, "ARG_OF_PERICENTER": 62.2174, "MEAN_ANOMALY": 88.4289, "EPHEMERIS_TYPE": 0, "CLASSIFICATION_TYPE": "U", "NORAD_CAT_ID": 34009, "ELEMENT_SET_NO": 999, "REV_AT_EPOCH": 87841, "BSTAR": 0.00023754563, "MEAN_MOTION_DOT": 6.3e-06, "MEAN_MOTION_DDOT": 0}, "tle": {"line1": "1 34009U 93036GU  25339.46053781  .00000630  00000+0  23755-3 0  9996", "line2": "2 34009  74.0371 350.2398 0026302  62.2174  88.4289 14.33213326878410"}}, "geometry": {"type": "Point", "coordinates": [9.373539608162673, 51.8811261340101]}}, {"type": "Feature", "properties": {"norad_id": 34010, "name": "COSMOS 2251 DEB", "group": "cosmos-2251-debris", "lat": -63.15604006670966, "lon": 150.49979183962444, "alt_km": 524.3968161560879, "timestamp": "2025-12-06T16:45:43.114986+00:00", "meta": {"OBJECT_NAME": "COSMOS 2251 DEB", "OBJECT_ID": "1993-036GV", "EPOCH": "2025-12-06T07:45:30.700800", "MEAN_MOTION": 15.17023433, "ECCENTRICITY": 0.0004467, "INCLINATION": 73.9999, "RA_OF_ASC_NODE": 296.7443, "ARG_OF_PERICENTER": 61.0093, "MEAN_ANOMALY": 299.155, "EPHEMERIS_TYPE": 0, "CLASSIFICATION_TYPE": "U", "NORAD_CAT_ID": 34010, "ELEMENT_SET_NO": 999, "REV_AT_EPOCH": 89188, "BSTAR": 0.0074892494, "MEAN_MOTION_DOT": 0.00151277, "MEAN_MOTION_DDOT": 0}, "tle": {"line1": "1 34010U 93036GV  25340.32327200  .00151277  00000+0  74892-2 0  9996", "line2": "2 34010  73.9999 296.7443 0004467  61.0093 299.1550 15.17023433891885"}}, "geometry": {"type": "Point", "coordinates": [150.49979183962444, -63.15604006670966]}}, {"type": "Feature", "properties": {"norad_id": 34011, "name": "COSMOS 2251 DEB", "group": "cosmos-2251-debris", "lat": -52.05193955358515, "lon": -177.0730597452578, "alt_km": 783.9880383570207, "timestamp": "2025-12-06T16:45:43.114995+00:00", "meta": {"OBJECT_NAME": "COSMOS 2251 DEB", "OBJECT_ID": "1993-036GW", "EPOCH": "2025-12-06T00:41:21.098688", "MEAN_MOTION": 14.41719901, "ECCENTRICITY": 0.00352462, "INCLINATION": 74.0147, "RA_OF_ASC_NODE": 342.6021, "ARG_OF_PERICENTER": 68.4372, "MEAN_ANOMALY": 292.0534, "EPHEMERIS_TYPE": 0, "CLASSIFICATION_TYPE": "U", "NORAD_CAT_ID": 34011, "ELEMENT_SET_NO": 999, "REV_AT_EPOCH": 87819, "BSTAR": 0.0013246525, "MEAN_MOTION_DOT": 4.329e-05, "MEAN_MOTION_DDOT": 0}, "tle": {"line1": "1 34011U 93036GW  25340.02871642  .00004329  00000+0  13247-2 0  9990", "line2": "2 34011  74.0147 342.6021 0035246  68.4372 292.0534 14.41719901878197"}}, "geometry": {"type": "Point", "coordinates": [-177.0730597452578, -52.05193955358515]}}]}